CZ-2C R/B               
1 54039U 22132E   26027.96076880  .00040287  00000+0  52861-3 0  9997
2 54039  97.2954  30.1604 0016741 237.3869 122.5771 15.58273644184025
GSLV R/B                
1 54149U 22138AN  26027.46643466  .00004903  00000+0  42840-3 0  9991
2 54149  87.3844 180.1580 0019742 305.0965  54.8415 14.96444031177764
XRISM                   
1 57800U 23137A   26027.75647353  .00008518  00000+0  49213-3 0  9996
2 57800  31.0007 188.3106 0008036 349.3945  10.6523 15.10957977131591
ACS3                    
1 59588U 24077B   26027.86178991  .00023954  00000+0  19948-1 0  9995
2 59588  97.2300 338.1490 0048161 211.1265 148.7043 13.87859172 88536
SZ-21 MODULE            
1 66515U 25246C   26027.58266655  .00038475  00000+0  37527-3 0  9995
2 66515  41.4754  95.8080 0003262 246.4687 113.5811 15.65450528 11621
