CCSDS_OMM_VERS = 2.0
CREATION_DATE  = 
ORIGINATOR     = 

OBJECT_NAME    = CZ-2C R/B
OBJECT_ID      = 2022-132E
CENTER_NAME    = EARTH
REF_FRAME      = TEME
TIME_SYSTEM    = UTC
MEAN_ELEMENT_THEORY = SGP/SGP4

EPOCH          = 2026-01-27T23:03:30.424320
MEAN_MOTION    = 15.58273644
ECCENTRICITY   = .00167415
INCLINATION    = 97.2954
RA_OF_ASC_NODE = 30.1604
ARG_OF_PERICENTER = 237.3869
MEAN_ANOMALY   = 122.5771

EPHEMERIS_TYPE = 0
CLASSIFICATION_TYPE = U
NORAD_CAT_ID   = 54039
ELEMENT_SET_NO = 999
REV_AT_EPOCH   = 18402
BSTAR          = .52860596E-3
MEAN_MOTION_DOT = .40287E-3
MEAN_MOTION_DDOT = 0

CCSDS_OMM_VERS = 2.0
CREATION_DATE  = 
ORIGINATOR     = 

OBJECT_NAME    = GSLV R/B
OBJECT_ID      = 2022-138AN
CENTER_NAME    = EARTH
REF_FRAME      = TEME
TIME_SYSTEM    = UTC
MEAN_ELEMENT_THEORY = SGP/SGP4

EPOCH          = 2026-01-27T11:11:39.954624
MEAN_MOTION    = 14.96444031
ECCENTRICITY   = .00197428
INCLINATION    = 87.3844
RA_OF_ASC_NODE = 180.1580
ARG_OF_PERICENTER = 305.0965
MEAN_ANOMALY   = 54.8415

EPHEMERIS_TYPE = 0
CLASSIFICATION_TYPE = U
NORAD_CAT_ID   = 54149
ELEMENT_SET_NO = 999
REV_AT_EPOCH   = 17776
BSTAR          = .42839857E-3
MEAN_MOTION_DOT = .4903E-4
MEAN_MOTION_DDOT = 0

CCSDS_OMM_VERS = 2.0
CREATION_DATE  = 
ORIGINATOR     = 

OBJECT_NAME    = XRISM
OBJECT_ID      = 2023-137A
CENTER_NAME    = EARTH
REF_FRAME      = TEME
TIME_SYSTEM    = UTC
MEAN_ELEMENT_THEORY = SGP/SGP4

EPOCH          = 2026-01-27T18:09:19.312992
MEAN_MOTION    = 15.10957977
ECCENTRICITY   = .00080368
INCLINATION    = 31.0007
RA_OF_ASC_NODE = 188.3106
ARG_OF_PERICENTER = 349.3945
MEAN_ANOMALY   = 10.6523

EPHEMERIS_TYPE = 0
CLASSIFICATION_TYPE = U
NORAD_CAT_ID   = 57800
ELEMENT_SET_NO = 999
REV_AT_EPOCH   = 13159
BSTAR          = .49213288E-3
MEAN_MOTION_DOT = .8518E-4
MEAN_MOTION_DDOT = 0

CCSDS_OMM_VERS = 2.0
CREATION_DATE  = 
ORIGINATOR     = 

OBJECT_NAME    = ACS3
OBJECT_ID      = 2024-077B
CENTER_NAME    = EARTH
REF_FRAME      = TEME
TIME_SYSTEM    = UTC
MEAN_ELEMENT_THEORY = SGP/SGP4

EPOCH          = 2026-01-27T20:40:58.648224
MEAN_MOTION    = 13.87859172
ECCENTRICITY   = .00481613
INCLINATION    = 97.2300
RA_OF_ASC_NODE = 338.1490
ARG_OF_PERICENTER = 211.1265
MEAN_ANOMALY   = 148.7043

EPHEMERIS_TYPE = 0
CLASSIFICATION_TYPE = U
NORAD_CAT_ID   = 59588
ELEMENT_SET_NO = 999
REV_AT_EPOCH   = 8853
BSTAR          = .19948196E-1
MEAN_MOTION_DOT = .23954E-3
MEAN_MOTION_DDOT = 0

CCSDS_OMM_VERS = 2.0
CREATION_DATE  = 
ORIGINATOR     = 

OBJECT_NAME    = SZ-21 MODULE
OBJECT_ID      = 2025-246C
CENTER_NAME    = EARTH
REF_FRAME      = TEME
TIME_SYSTEM    = UTC
MEAN_ELEMENT_THEORY = SGP/SGP4

EPOCH          = 2026-01-27T13:59:02.389920
MEAN_MOTION    = 15.65450528
ECCENTRICITY   = .0003262
INCLINATION    = 41.4754
RA_OF_ASC_NODE = 95.8080
ARG_OF_PERICENTER = 246.4687
MEAN_ANOMALY   = 113.5811

EPHEMERIS_TYPE = 0
CLASSIFICATION_TYPE = U
NORAD_CAT_ID   = 66515
ELEMENT_SET_NO = 999
REV_AT_EPOCH   = 1162
BSTAR          = .37527E-3
MEAN_MOTION_DOT = .38475E-3
MEAN_MOTION_DDOT = 0

